{
    "week": 295,
    "satellites": [
        {
            "Name": "COSMOS 2433 (720)",
            "Line1": "1 32275U 07052A   24336.27493857 -.00000036  00000+0  00000+0 0  9994",
            "Line2": "2 32275  65.8684 334.8129 0005739 254.6593 105.3027  2.13104085133061",
            "SatelliteNumber": "32275",
            "Classification": "U",
            "LaunchYear": "07",
            "LaunchNumber": "052",
            "PieceOfLaunch": "A",
            "EpochYear": "24",
            "EpochDay": 336.27493857,
            "FirstDerivativeMeanMotion": -3.6e-07,
            "SecondDerivativeMeanMotion": "00000+0",
            "BSTAR": "00000+0",
            "SetNumber": "999",
            "Inclination": 65.8684,
            "RAAN": 334.8129,
            "Eccentricity": 0.0005739,
            "ArgumentOfPerigee": 254.6593,
            "MeanAnomaly": 105.3027,
            "MeanMotion": 2.13104085,
            "RevolutionNumber": "13306"
        },
        {
            "Name": "COSMOS 2432 (719)",
            "Line1": "1 32276U 07052B   24337.32710684 -.00000033  00000+0  00000+0 0  9999",
            "Line2": "2 32276  65.8834 334.8947 0011512 311.7142  81.1229  2.13103204133111",
            "SatelliteNumber": "32276",
            "Classification": "U",
            "LaunchYear": "07",
            "LaunchNumber": "052",
            "PieceOfLaunch": "B",
            "EpochYear": "24",
            "EpochDay": 337.32710684,
            "FirstDerivativeMeanMotion": -3.3e-07,
            "SecondDerivativeMeanMotion": "00000+0",
            "BSTAR": "00000+0",
            "SetNumber": "999",
            "Inclination": 65.8834,
            "RAAN": 334.8947,
            "Eccentricity": 0.0011512,
            "ArgumentOfPerigee": 311.7142,
            "MeanAnomaly": 81.1229,
            "MeanMotion": 2.13103204,
            "RevolutionNumber": "13311"
        },
        {
            "Name": "COSMOS 2434 (721)",
            "Line1": "1 32393U 07065A   24336.88591177  .00000082  00000+0  00000+0 0  9990",
            "Line2": "2 32393  64.3152 210.8986 0004190  71.0185 289.6550  2.13101355131790",
            "SatelliteNumber": "32393",
            "Classification": "U",
            "LaunchYear": "07",
            "LaunchNumber": "065",
            "PieceOfLaunch": "A",
            "EpochYear": "24",
            "EpochDay": 336.88591177,
            "FirstDerivativeMeanMotion": 8.2e-07,
            "SecondDerivativeMeanMotion": "00000+0",
            "BSTAR": "00000+0",
            "SetNumber": "999",
            "Inclination": 64.3152,
            "RAAN": 210.8986,
            "Eccentricity": 0.000419,
            "ArgumentOfPerigee": 71.0185,
            "MeanAnomaly": 289.655,
            "MeanMotion": 2.13101355,
            "RevolutionNumber": "13179"
        },
        {
            "Name": "COSMOS 2436 (723)",
            "Line1": "1 32395U 07065C   24337.40939028  .00000081  00000+0  00000+0 0  9991",
            "Line2": "2 32395  64.3238 210.9472 0017382   7.1979 169.7528  2.13100096131756",
            "SatelliteNumber": "32395",
            "Classification": "U",
            "LaunchYear": "07",
            "LaunchNumber": "065",
            "PieceOfLaunch": "C",
            "EpochYear": "24",
            "EpochDay": 337.40939028,
            "FirstDerivativeMeanMotion": 8.1e-07,
            "SecondDerivativeMeanMotion": "00000+0",
            "BSTAR": "00000+0",
            "SetNumber": "999",
            "Inclination": 64.3238,
            "RAAN": 210.9472,
            "Eccentricity": 0.0017382,
            "ArgumentOfPerigee": 7.1979,
            "MeanAnomaly": 169.7528,
            "MeanMotion": 2.13100096,
            "RevolutionNumber": "13175"
        },
        {
            "Name": "COSMOS 2456 (730)",
            "Line1": "1 36111U 09070A   24337.15395685  .00000005  00000+0  00000+0 0  9992",
            "Line2": "2 36111  64.6950  90.1958 0002398 298.3326  62.5999  2.13103601116455",
            "SatelliteNumber": "36111",
            "Classification": "U",
            "LaunchYear": "09",
            "LaunchNumber": "070",
            "PieceOfLaunch": "A",
            "EpochYear": "24",
            "EpochDay": 337.15395685,
            "FirstDerivativeMeanMotion": 5e-08,
            "SecondDerivativeMeanMotion": "00000+0",
            "BSTAR": "00000+0",
            "SetNumber": "999",
            "Inclination": 64.695,
            "RAAN": 90.1958,
            "Eccentricity": 0.0002398,
            "ArgumentOfPerigee": 298.3326,
            "MeanAnomaly": 62.5999,
            "MeanMotion": 2.13103601,
            "RevolutionNumber": "11645"
        },
        {
            "Name": "COSMOS 2457 (733)",
            "Line1": "1 36112U 09070B   24337.55900612  .00000008  00000+0  00000+0 0  9992",
            "Line2": "2 36112  64.6800  90.0370 0005537 156.9046 287.3542  2.13101040116460",
            "SatelliteNumber": "36112",
            "Classification": "U",
            "LaunchYear": "09",
            "LaunchNumber": "070",
            "PieceOfLaunch": "B",
            "EpochYear": "24",
            "EpochDay": 337.55900612,
            "FirstDerivativeMeanMotion": 8e-08,
            "SecondDerivativeMeanMotion": "00000+0",
            "BSTAR": "00000+0",
            "SetNumber": "999",
            "Inclination": 64.68,
            "RAAN": 90.037,
            "Eccentricity": 0.0005537,
            "ArgumentOfPerigee": 156.9046,
            "MeanAnomaly": 287.3542,
            "MeanMotion": 2.1310104,
            "RevolutionNumber": "11646"
        },
        {
            "Name": "COSMOS 2460 (732)",
            "Line1": "1 36402U 10007C   24337.60165287 -.00000032  00000+0  00000+0 0  9991",
            "Line2": "2 36402  65.7210 333.4046 0002971 272.4174 198.6507  2.13106221114760",
            "SatelliteNumber": "36402",
            "Classification": "U",
            "LaunchYear": "10",
            "LaunchNumber": "007",
            "PieceOfLaunch": "C",
            "EpochYear": "24",
            "EpochDay": 337.60165287,
            "FirstDerivativeMeanMotion": -3.2e-07,
            "SecondDerivativeMeanMotion": "00000+0",
            "BSTAR": "00000+0",
            "SetNumber": "999",
            "Inclination": 65.721,
            "RAAN": 333.4046,
            "Eccentricity": 0.0002971,
            "ArgumentOfPerigee": 272.4174,
            "MeanAnomaly": 198.6507,
            "MeanMotion": 2.13106221,
            "RevolutionNumber": "11476"
        },
        {
            "Name": "COSMOS 2476 (744)",
            "Line1": "1 37867U 11064A   24335.44584147 -.00000003  00000+0  00000+0 0  9999",
            "Line2": "2 37867  64.9642  91.9509 0023171 232.3568 169.6485  2.13101549101759",
            "SatelliteNumber": "37867",
            "Classification": "U",
            "LaunchYear": "11",
            "LaunchNumber": "064",
            "PieceOfLaunch": "A",
            "EpochYear": "24",
            "EpochDay": 335.44584147,
            "FirstDerivativeMeanMotion": -3e-08,
            "SecondDerivativeMeanMotion": "00000+0",
            "BSTAR": "00000+0",
            "SetNumber": "999",
            "Inclination": 64.9642,
            "RAAN": 91.9509,
            "Eccentricity": 0.0023171,
            "ArgumentOfPerigee": 232.3568,
            "MeanAnomaly": 169.6485,
            "MeanMotion": 2.13101549,
            "RevolutionNumber": "10175"
        },
        {
            "Name": "COSMOS 2477 (745)",
            "Line1": "1 37868U 11064B   24337.48522712  .00000011  00000+0  00000+0 0  9994",
            "Line2": "2 37868  64.9720  91.9559 0020370 232.9255 112.5857  2.13102923101789",
            "SatelliteNumber": "37868",
            "Classification": "U",
            "LaunchYear": "11",
            "LaunchNumber": "064",
            "PieceOfLaunch": "B",
            "EpochYear": "24",
            "EpochDay": 337.48522712,
            "FirstDerivativeMeanMotion": 1.1e-07,
            "SecondDerivativeMeanMotion": "00000+0",
            "BSTAR": "00000+0",
            "SetNumber": "999",
            "Inclination": 64.972,
            "RAAN": 91.9559,
            "Eccentricity": 0.002037,
            "ArgumentOfPerigee": 232.9255,
            "MeanAnomaly": 112.5857,
            "MeanMotion": 2.13102923,
            "RevolutionNumber": "10178"
        },
        {
            "Name": "COSMOS 2475 (743)",
            "Line1": "1 37869U 11064C   24337.53056928  .00000011  00000+0  00000+0 0  9992",
            "Line2": "2 37869  64.9788  91.9708 0024933 248.5824  89.3640  2.13101584101798",
            "SatelliteNumber": "37869",
            "Classification": "U",
            "LaunchYear": "11",
            "LaunchNumber": "064",
            "PieceOfLaunch": "C",
            "EpochYear": "24",
            "EpochDay": 337.53056928,
            "FirstDerivativeMeanMotion": 1.1e-07,
            "SecondDerivativeMeanMotion": "00000+0",
            "BSTAR": "00000+0",
            "SetNumber": "999",
            "Inclination": 64.9788,
            "RAAN": 91.9708,
            "Eccentricity": 0.0024933,
            "ArgumentOfPerigee": 248.5824,
            "MeanAnomaly": 89.364,
            "MeanMotion": 2.13101584,
            "RevolutionNumber": "10179"
        }
    ]
}